{
  "type": "FeatureCollection",
  "features": [
    {
      "type": "Feature",
      "properties": {
        "norad_id": 37846,
        "name": "GSAT0101 (GALILEO-PFM)",
        "group": "galileo",
        "lat": -52.16625513336574,
        "lon": -136.45948166593806,
        "alt_km": 23223.659431582328,
        "timestamp": "2025-12-09T04:51:47.756099+00:00",
        "meta_object_name": "GSAT0101 (GALILEO-PFM)",
        "meta_object_id": "2011-060A",
        "meta_epoch": "2025-12-06T10:45:46.943136",
        "meta_mean_motion": 1.70475516,
        "meta_eccentricity": 0.00028809,
        "meta_inclination": 57.0541,
        "meta_ra_of_asc_node": 346.9907,
        "meta_arg_of_pericenter": 311.6243,
        "meta_mean_anomaly": 48.3737,
        "meta_ephemeris_type": 0,
        "meta_classification_type": "U",
        "meta_norad_cat_id": 37846,
        "meta_element_set_no": 999,
        "meta_rev_at_epoch": 8783,
        "meta_bstar": 0,
        "meta_mean_motion_dot": -8.1e-07,
        "meta_mean_motion_ddot": 0,
        "tle_line1": "1 37846U 11060A   25340.44845999 -.00000081  00000+0  00000+0 0  9990",
        "tle_line2": "2 37846  57.0541 346.9907 0002880 311.6243  48.3737  1.70475516 87832"
      },
      "geometry": {
        "type": "Point",
        "coordinates": [
          -136.45948166593806,
          -52.16625513336574
        ]
      }
    },
    {
      "type": "Feature",
      "properties": {
        "norad_id": 37847,
        "name": "GSAT0102 (GALILEO-FM2)",
        "group": "galileo",
        "lat": -49.08958921815293,
        "lon": -61.53917434115409,
        "alt_km": 23213.46415759123,
        "timestamp": "2025-12-09T04:51:47.756121+00:00",
        "meta_object_name": "GSAT0102 (GALILEO-FM2)",
        "meta_object_id": "2011-060B",
        "meta_epoch": "2025-12-06T01:52:21.849024",
        "meta_mean_motion": 1.7047572,
        "meta_eccentricity": 0.00048425,
        "meta_inclination": 57.055,
        "meta_ra_of_asc_node": 347.0012,
        "meta_arg_of_pericenter": 307.2223,
        "meta_mean_anomaly": 230.8964,
        "meta_ephemeris_type": 0,
        "meta_classification_type": "U",
        "meta_norad_cat_id": 37847,
        "meta_element_set_no": 999,
        "meta_rev_at_epoch": 8783,
        "meta_bstar": 0,
        "meta_mean_motion_dot": -7.9e-07,
        "meta_mean_motion_ddot": 0,
        "tle_line1": "1 37847U 11060B   25340.07803066 -.00000079  00000+0  00000+0 0  9996",
        "tle_line2": "2 37847  57.0550 347.0012 0004842 307.2223 230.8964  1.70475720 87838"
      },
      "geometry": {
        "type": "Point",
        "coordinates": [
          -61.53917434115409,
          -49.08958921815293
        ]
      }
    },
    {
      "type": "Feature",
      "properties": {
        "norad_id": 38857,
        "name": "GSAT0103 (GALILEO-FM3)",
        "group": "galileo",
        "lat": -36.230941856570865,
        "lon": -43.25669709285707,
        "alt_km": 23221.296781378453,
        "timestamp": "2025-12-09T04:51:47.756136+00:00",
        "meta_object_name": "GSAT0103 (GALILEO-FM3)",
        "meta_object_id": "2012-055A",
        "meta_epoch": "2025-12-06T11:43:28.953984",
        "meta_mean_motion": 1.7047325,
        "meta_eccentricity": 0.00024686,
        "meta_inclination": 55.6879,
        "meta_ra_of_asc_node": 106.8382,
        "meta_arg_of_pericenter": 267.747,
        "meta_mean_anomaly": 92.1776,
        "meta_ephemeris_type": 0,
        "meta_classification_type": "U",
        "meta_norad_cat_id": 38857,
        "meta_element_set_no": 999,
        "meta_rev_at_epoch": 8172,
        "meta_bstar": 0,
        "meta_mean_motion_dot": 7e-08,
        "meta_mean_motion_ddot": 0,
        "tle_line1": "1 38857U 12055A   25340.48852956  .00000007  00000+0  00000+0 0  9990",
        "tle_line2": "2 38857  55.6879 106.8382 0002468 267.7470  92.1776  1.70473250 81723"
      },
      "geometry": {
        "type": "Point",
        "coordinates": [
          -43.25669709285707,
          -36.230941856570865
        ]
      }
    },
    {
      "type": "Feature",
      "properties": {
        "norad_id": 40128,
        "name": "GSAT0201 (GALILEO 5)",
        "group": "galileo",
        "lat": 17.764913944960362,
        "lon": -62.695791801039185,
        "alt_km": 25276.62164383758,
        "timestamp": "2025-12-09T04:51:47.756148+00:00",
        "meta_object_name": "GSAT0201 (GALILEO 5)",
        "meta_object_id": "2014-050A",
        "meta_epoch": "2025-12-07T12:54:32.900256",
        "meta_mean_motion": 1.85519488,
        "meta_eccentricity": 0.16474216,
        "meta_inclination": 49.0828,
        "meta_ra_of_asc_node": 281.2757,
        "meta_arg_of_pericenter": 172.085,
        "meta_mean_anomaly": 190.9173,
        "meta_ephemeris_type": 0,
        "meta_classification_type": "U",
        "meta_norad_cat_id": 40128,
        "meta_element_set_no": 999,
        "meta_rev_at_epoch": 7476,
        "meta_bstar": 0,
        "meta_mean_motion_dot": -5.9e-07,
        "meta_mean_motion_ddot": 0,
        "tle_line1": "1 40128U 14050A   25341.53788079 -.00000059  00000+0  00000+0 0  9990",
        "tle_line2": "2 40128  49.0828 281.2757 1647421 172.0850 190.9173  1.85519488 74761"
      },
      "geometry": {
        "type": "Point",
        "coordinates": [
          -62.695791801039185,
          17.764913944960362
        ]
      }
    },
    {
      "type": "Feature",
      "properties": {
        "norad_id": 40129,
        "name": "GSAT0202 (GALILEO 6)",
        "group": "galileo",
        "lat": -40.929995499865875,
        "lon": 148.92555042564757,
        "alt_km": 19206.930096835324,
        "timestamp": "2025-12-09T04:51:47.756160+00:00",
        "meta_object_name": "GSAT0202 (GALILEO 6)",
        "meta_object_id": "2014-050B",
        "meta_epoch": "2025-12-06T04:15:08.981856",
        "meta_mean_motion": 1.85520222,
        "meta_eccentricity": 0.16479377,
        "meta_inclination": 49.1003,
        "meta_ra_of_asc_node": 280.4147,
        "meta_arg_of_pericenter": 172.7832,
        "meta_mean_anomaly": 189.9608,
        "meta_ephemeris_type": 0,
        "meta_classification_type": "U",
        "meta_norad_cat_id": 40129,
        "meta_element_set_no": 999,
        "meta_rev_at_epoch": 7690,
        "meta_bstar": 0,
        "meta_mean_motion_dot": -5.4e-07,
        "meta_mean_motion_ddot": 0,
        "tle_line1": "1 40129U 14050B   25340.17718729 -.00000054  00000+0  00000+0 0  9990",
        "tle_line2": "2 40129  49.1003 280.4147 1647937 172.7832 189.9608  1.85520222 76908"
      },
      "geometry": {
        "type": "Point",
        "coordinates": [
          148.92555042564757,
          -40.929995499865875
        ]
      }
    },
    {
      "type": "Feature",
      "properties": {
        "norad_id": 40544,
        "name": "GSAT0203 (GALILEO 7)",
        "group": "galileo",
        "lat": 21.913547212671645,
        "lon": 2.0201588606592913,
        "alt_km": 23227.77637720993,
        "timestamp": "2025-12-09T04:51:47.756171+00:00",
        "meta_object_name": "GSAT0203 (GALILEO 7)",
        "meta_object_id": "2015-017A",
        "meta_epoch": "2025-12-07T23:40:17.785344",
        "meta_mean_motion": 1.70475803,
        "meta_eccentricity": 0.00065197,
        "meta_inclination": 56.8473,
        "meta_ra_of_asc_node": 346.8097,
        "meta_arg_of_pericenter": 270.7442,
        "meta_mean_anomaly": 89.1988,
        "meta_ephemeris_type": 0,
        "meta_classification_type": "U",
        "meta_norad_cat_id": 40544,
        "meta_element_set_no": 999,
        "meta_rev_at_epoch": 6594,
        "meta_bstar": 0,
        "meta_mean_motion_dot": -8.6e-07,
        "meta_mean_motion_ddot": 0,
        "tle_line1": "1 40544U 15017A   25341.98631696 -.00000086  00000+0  00000+0 0  9997",
        "tle_line2": "2 40544  56.8473 346.8097 0006519 270.7442  89.1988  1.70475803 65948"
      },
      "geometry": {
        "type": "Point",
        "coordinates": [
          2.0201588606592913,
          21.913547212671645
        ]
      }
    },
    {
      "type": "Feature",
      "properties": {
        "norad_id": 40545,
        "name": "GSAT0204 (GALILEO 8)",
        "group": "galileo",
        "lat": -39.6264762291723,
        "lon": -160.44655304862883,
        "alt_km": 23211.037268499644,
        "timestamp": "2025-12-09T04:51:47.756183+00:00",
        "meta_object_name": "GSAT0204 (GALILEO 8)",
        "meta_object_id": "2015-017B",
        "meta_epoch": "2025-12-08T05:48:09.490464",
        "meta_mean_motion": 1.70475483,
        "meta_eccentricity": 0.00062708,
        "meta_inclination": 56.8542,
        "meta_ra_of_asc_node": 346.8204,
        "meta_arg_of_pericenter": 261.7403,
        "meta_mean_anomaly": 98.2059,
        "meta_ephemeris_type": 0,
        "meta_classification_type": "U",
        "meta_norad_cat_id": 40545,
        "meta_element_set_no": 999,
        "meta_rev_at_epoch": 2899,
        "meta_bstar": 0,
        "meta_mean_motion_dot": -8.6e-07,
        "meta_mean_motion_ddot": 0,
        "tle_line1": "1 40545U 15017B   25342.24177651 -.00000086  00000+0  00000+0 0  9994",
        "tle_line2": "2 40545  56.8542 346.8204 0006270 261.7403  98.2059  1.70475483 28995"
      },
      "geometry": {
        "type": "Point",
        "coordinates": [
          -160.44655304862883,
          -39.6264762291723
        ]
      }
    }
  ]
}